site	region	city	postcode	road with number	country	state
aatoppers.com		Lakewood		Sheridan Blvd	United States	CO
abmechanical.com	Bay Area	Livermore	740508	Railroad Ave	USA	
abmechanical.com	Bay Area			94550	States	
acflagandbanner.com		Denver	303-770-FLAG	11616 Shaffer Pl	France	US
afsuk.com		Blackburn		Challenge Way		
afsuk.com				York Road		
airservicesco.com		Elk Grove Village		211 Seegers Avenue	Saudi Arabia	IL
airservicesco.com		Loves Park		6914 Forest Hills Road	Saudi Arabia	IL
allaboutvenues.com	Cheshire	Congleton	Gawsworth Business Court	Shellow Lane		
alldolly.com		Auburn	11417	Overhill Drive	United States	California
apieceofcake11.com		Cape May Court House	08210	U.S. 9	United States	NJ
ashleymilton.com		London	020 7286 6565	Elgin Avenue	UK	
athensgop.com		Athens		236 Old Epps Bridge Road	United States	GEORGIA
atlanticbeach-nc.com	Atlantic Ocean	Atlantic Beach	252 726-2121	125 West Fort Macon Rd	United States	NC
belhavensmokehouse.co.uk		Dunbar	1234	A1		
belhavensmokehouse.co.uk		Dunbar	EH42	A199		
bettymiller.com	UK			01420 571 350 The Big Biscuit Company Limited Building 68B	Hampshire	
bettymiller.com	Hampshire			Budds Lane		
bill-medical.co.uk	Buckinghamshire	Amersham	09954541	Chiltern Avenue		
birdbrand.co.uk				Southery Road	United Kingdom	
bjcplanning.co.uk	Hampshire		PO14 4DL	3 South Street		
bootleggerlasvegas.com		Las Vegas		7700 Las Vegas Blvd	United States	NV
bootleggerlasvegas.com		Las Vegas		South Strip	United States	Nevada
browntroutinn.com		Coleraine	Agivey Road	02870 868209		
brycsoccer.com				Braddock Road		
burrowfieldautos.com	Hertfordshire	BURROWFIELD AUTOS	01707 393 017	WOODFIELD ROAD	ENGLAND	
cakesuppliers.co.uk	UK	Derby	Unit 2	Soloman Road	UK	
cakesuppliers.co.uk		Derby	0845 609 8416	Cossal Industrial Estate	Ireland	
campwalden-ny.com	Adirondack Mountains	Walden	518-644-9441	Trout Lake Road	United States	New York
cardinalpointstrategies.com	US	London	WD17	Brookside Works 1a	United Kingdom	Hertfordshire
cardinalpointstrategies.com	European	Watford		Local Board Road		
caribbean-sea.org	Caribbean	Chattannooga		1510 Riverside Drive	Belize	
caribbean-sea.org	CARIBBEAN	Chattanooga		PO Box 4437	St. Lucia	
casino-poker-manager.com			82008	Oberweg 6	Unterhaching Germany	
cerberusnetworks.co.uk	UK		0345 257 1333	9 Walmgate Road	UK	
channell.com		Rockwall	75087	800.423.1863	United States	TX
channell.com			214	1700 Justin Rd		
channell.com				304-7800		
chequermead.org.uk	UK	East Grinstead pantomime favourites! ALL EVENTS UPCOMING HIGHLIGHTS AT CHEQUER MEAD	1165519	RH19 3LT	West Sussex	
cincinnatifleetcare.com		CINCINNATI		Commerce Park Dr	United States	OH
class.agency	UK	Wimbledon	B1 1TT	Suffolk St	England	
class.agency		Birmingham	06783153	Kingfisher Bus. Park	Wales	
classicgardens.com		Birmingham		Carson Road	Iraq	AL
clovispointsolutions.com		Clovis Point		Lake Chapel Lane	American	
clubk-9.com		PORTLAND		TIGARD		
commongroundchildcare.org		Reston		1700 WAINWRIGHT DRIVE	United States	Northern Virginia
conisboroughcollege.co.uk		London		020 8461 9600		
conisboroughcollege.co.uk				Conisborough Crescent		
conisboroughcollege.co.uk				020 8461 9600		
consysequip.com	Bucks		7507713	Thomas Road		
cornerfridge.com		Doncaster	+44 1302 759308	+44 1302 759308	UK	
cornerstone-mosinee.com		Mosinee		601 5th St	United States	WI
costumeswithcharacter.com			Unit 4	0161 442 8740		
costumeswithcharacter.com			Heaton Mersey	Battersea Road		
costumeswithcharacter.com			SK4	0161 442 8740		
ct-engineering.co.uk		Weston-Super-Mare	01934 419296	Oldmixon Crescent		
cybersofttechnologies.com			Suite 200	Annapolis Road	United States	State of Maryland
dai-lewis.co.uk	West Wales	Llandysul	N14010	01559 363401		
dai-lewis.co.uk	West Wales	Newcastle Emlyn	L33028	01239 710481 College Street		
derby-exp.co.uk	UK		Unit H1	European Road	Ireland	
derby-exp.co.uk	Offshore		Cranmer Road	Cranmer Road		
desynit.com	UK	Bristol	06200416	Macrae Road	England	
dfrealtors.com		AVALON		11108 2nd Avenue	United States	NEW JERSEY
dfrealtors.com		STONE HARBOR		Ocean Drive		
digibee.co.uk	England	Brightwell Barns	Waldringfield Road	14 Brightwell Barns		
digipress.co.uk	Wales	Llansamlet	Mill Stream Way	01792 456661		
doglawsos.co.uk				Menzies Road	United Kingdom	Kent
ecocolorssalon.com		Atlanta	Suite 101	Rock Springs Rd	United States	Georgia
emilyseventsaz.com		Scottsdale	480.361.1800	7625 E Redfield Rd	Libya	AZ
erling.com		Hutto	Benelli Drive	1-800-324-5000	United States	Texas
essexcommunityfoundation.org.uk	Essex	Chelmsford	01245 355947	Hoffmanns Way		
ewingbuildingandcabinets.com		Blacksburg		540.951.0544	United States	Virginia
ewingbuildingandcabinets.com		Blacksburg		540.951.0544	United States	VA
exchequersolutions.co.uk		Chester	St John Street	01244 500 195	UK	
ezy-clean.co.uk	Kent	Portsmouth	Oast	0330 223 2111		
ezy-clean.co.uk	Sussex			Unit 3		
ezy-clean.co.uk	Surrey			Wents Road		
ezy-clean.co.uk	South East			ME17		
fertilityroad.com	regions			Fertility Road	Spain	
foamtechniques.co.uk	Wales	Bedminster	NN8	Booth Drive	Russia	UK
foamtechniques.co.uk		Bristol	02078810	South Liberty Lane	England	
folsomshope.org		Folsom		1100 Blue Ravine Road	United States	CA
folsomshope.org		Folsom		1100 Blue Ravine Road	United States	CA
fountainhillsapartments.com		Fountain Hills		I-94	None	WI 53406
fountainhillsapartments.com		Fountain Hills		Hwy. 20 & 90th St		
garringtoneast.co.uk	East Anglia	Cambridge	ME	+44 (0) 1223 858310	United States	Norfolk
go-east.de	Europa	Moskau		Woyrschweg 54	Russland	
goodshepherdofcashiers.com				464 US Hwy 64E		
grand-union.org.uk		Grand Union	B5	Fazeley Street		
greentimber.com	North American	Sawbridgeworth	CM21 0LX	Parsonage Lane	United Kingdom	Hertfordshire
heckfordnorton.co.uk	Essex	Stevenage	2022	SG1	United Kingdom	Hertfordshire
heckfordnorton.co.uk	Cambridgeshire	Letchworth Garden City	51014	2022		
henshaw.uk.com		EDINBURGH	177 BOTHWELL STREET	Russell Road	SCOTLAND	
hodgepodgebakeshop.weebly.com		Muskegon		3361 Mccracken Street	United States	MI
hscpoly.com	Great Lakes Bay Region	Hemlock		Geddes Road	United States	Michigan
hscpoly.com		Hemlock		PO Box 80	United States	Michigan
ifw-dresden.de		Dresden	01069	Helmholtzstrasse 20		
ilovebodega.com		LEITHERS		Leith Walk		
imajica.com	Scotland	Aberdeen	Albyn Place	Victoria Embankment	Scotland	
inoapps.com				0870 112 2000	Aberdeen	
jeanettekidd.com		Belfast		Antrim St		
jkwlaw.com		London		124 City Road		
kellyandstonearchitects.com	Rocky Mountains	Kelly and Stone Architects	11209 Brockway Road	Copeland Lane	Canada	Radium Hot Springs
kellyandstonearchitects.com		Truckee	1169 Hilltop Parkway	Fairway Overlook 497	Canada	Radium Hot Springs
kellyandstonearchitects.com		Koloa		Clear Creek 9	United States	California
kiddsmith.com		Boiling Springs		117 Riviera Drive	United States	SC
lamprinostv.com	Central PA	Lewisburg		2629 Old Turnpike Rd	United States	PA
lancastermennonite.org		Lancaster		402 Golf Road	United States	PA
lnrothberg.com		Middlesex		550 Cedar Avenue	United States	NJ
londoncouncils.gov.uk		London	SE1 0AL	Southwark Street		
londonshootfighters.com		EAST LONDON	Atlip Road	Unit 4		
londontaxiadvertising.com		London	WC1H	King's Cross	UK	
malonesedinburgh.com		Edinburgh	Sauchiehall Lane	90 Shiprow	UK	
malonesedinburgh.com		Edinburgh		48-52 Constitution St	UK	
manddbirdfarm.com	Google Maps	Harbeson	302-684-4101	Georgetown Highway	United States	Lewes
maritimedevelopments.com		Aberdeen	Moss Road	Wilson Street	UK	
markettiers.com	world's biggest brands. Our creative multimedia campaigns generate local	London		+44 (0)20 7253 8888	UK	
markettiers.com	regional	Dubai		BERRY STREET	Middle East	
markettiers.com	national	Brighton		EC1V 0AU	Middle East	
markettiers.com	international	Manchester		CHARLOTTE STREET	Sri Lanka	
markettiers.com	ENGLAND	london		NORTH ROAD	England	
markettiers.com		LONDON		EC1V 0AU		
markettiers.com		manchester		+44 (0)20 7253 8888		
marlin.com		London		Aldgate		
marlin.com		London		Tower Bridge		
marlin.com		London		Limehouse Commercial Road		
marlin.com		London		London Bridge		
marlin.com		London		Queen Street		
marlin.com		London		Queen Street		
martinselfstorage.com		Monkey Junction		US 17		
martinselfstorage.com		Wilmington		Hwy 211		
masterrenovationsinc.com		Orrville		10718 Old Lincoln Way	United States	OH
mattressplus.tv		Shreveport		3964 Youree Drive	Bolivia	La.
meguiars.co.uk		Bracknell		Cain Road	UK	
metalline.co.uk			WS11 1DB	Hollies Park Road	United Kingdom	Staffordshire
missionlimited.com				Upper Teddington Road		
moline.com		Moline		114 SOUTH CENTRAL AVENUE	France	USA
monalisasmiles.co.uk		Barnet	020 8449 3411	Station Road		
montalt.co.uk			Curlew House	Trinity Way		
mrchippyyork.co.uk		York	01904 672888	2 Church Street		
mulchandsod.com		Orlando Outdoors	407-909-1835	Apopka Blvd	United States	FL
nationalforests.org		Torreon		Mountain Loop Highway	United States	Oregon
neutresalon.com		Neutre	301-228-3670	101 S Market Street	United States	MD
newfield.co.uk	Cheshire			Hall Lane	UK	
northgatevehiclehire.co.uk			2024	SEARCH Road		
novellasrecycling.com		Danbury	203.743.5275	203.743.5275	United States	Connecticut
oldehomestead.com		Lexington		Main Street		
optilan.com		Birmingham	Cannon House 18	3rd Floor		
optilan.com		Birmingham	6FD	The Priory Queensway		
optilan.com		Birmingham		B4		
optimumcarehomecare.com		Fredericksburg		Fettler Park Drive	United States	Virginia
optimumcarehomecare.com		Woodbridge		8200 Greensboro Drive	United States	Virginia
optimumcarehomecare.com		Dumfries		2324 Plank Road	United States	VA
paintball-worcester.co.uk		WORCESTER	Bilford Rd	520609-217		
pakwanrestaurant.com		Fremont	16th St	Ocean Ave		
panniergraphics.com		Gibsonia	724.265.4900	345 Oak Road	United States	PA
panniergraphics.com		GIBSONIA		345 OAK ROAD	United States	Ohio
panniergraphics.com				724.265.4900	United States	PA
paynes-heating.co.uk			Lewes Road	01825 891720	United States	England
pchandy.net		Cleveland		Larchmere Boulevard		
peasholmecharity.org.uk	North Yorkshire	York	Fishergate	Micklegate		
peoplefirstlawyers.com		MOUNT LAUREL	16000	COMMERCE PARKWAY	EN ESPANOL	
perfectprofilesclinics.co.uk		Houghton Regis	LU5 5ES	27 Bedford Square		
persianbijar.com		Tabriz		Monroe Street	Iran	
persianbijar.com		Kashan		Monroe Street	Iran	
pescodsquare.com		Boston		Wide Bargate		
pescodsquare.com		Boston		Mitre Lane		
pfsc.co.uk	East Lothian	Edinburgh	80-11-00	10 North Grange Grove	Scotland	
plasma-clean.com		Greater Manchester	0800 652 3325	Dowry Street	United Kingdom	
plasma-clean.com		London		0800 652 3325		
pmkcivilengineering.com		Glasgow		M8	Scotland	
pmkcivilengineering.com		Edinburgh		A77	UK	
pollock.co.uk		Bathgate	EH48 2EY	10 Blackburn Road	Scotland	
pollock.co.uk		Bathgate	SC053751	10 Blackburn Road	Scotland	
portertwp.org	Delaware County	Porter Township		Chambers Road	United States	Ohio
portertwp.org		Columbus		Covered Bridge	United States	Ohio
portertwp.org		Sunbury		Chambers Rd	United States	Ohio
porthavallen.co.uk	Cornwall	St. Austell	01726 812802	private road	Cornish	
precisioninternational.com		Asheville		23 Sardis Road	United States	NC
precisioninternational.com		Asheville		23 Sardis Road	United States	NC
precisioninternational.com		Asheville		Interstate 26	United States	North Carolina
priorandwillisantiques.co.uk				47 Salts Road		
pyedesign.com		Sutton Coldfield		Hill Lane	United Kingdom	West Midlands
queensberryrealestate.com	UK	London	W1W	Clipstone Street		
queensberryrealestate.com		London	6BB	East Parade		
raxel.co.uk	UK			Ruston Road	Ethiopia	
rbvc.com		Stuttgart	Barckhausstrasse 10	Mittlerer Pfad 2	United States	MA
rbvc.com		Stuttgart-Weilimdorf		Santa Trinita Avenue	Germany	
rbvc.com		Frankfurt		Rothschild Boulevard	Germany	
redkitebaby.co.uk		Bristol		Lavenham Road		
rentalsandsales.co.uk		New Malden	KT3	Cobham Avenue		
rentalsandsales.co.uk		LONDON UNIQUE RARELY  AVAILABLE 1 BED STUDIO WITH PRIVATE GARDEN London	Church Road	Church Road		
rentalsandsales.co.uk		London	CR4	Crealock Street		
rodneyyoungphotography.com		Fort Worth	76063	Zachary Ct	United States	DFW
royalegraphics.co.uk	uk	Nottingham	NG9	0115 949 1880	UK	
royalegraphics.co.uk	UK		0115 949 1880	0115 949 1880		
royalegraphics.co.uk	UK			Archer Road		
sardisbaptist.com		Sardis Baptist Church	882-2982	Unionville-Indian Trail Rd	United States	NC
sardisbaptist.com			3602	W Indian Trail		
schuhhause.de		Dusseldorf	47918 Tonisvorst	Kuhstrasse 3		
schuhhause.de		Dusseldorfer		Kuhstrasse 3		
searchouthomes.com		Boise		1739 S. Jade Way	United States	Idaho
seedsourceag.com	Northeast Nebraska	Wayne	Chiefs Way	402-375-4715	United States	Northwest Iowa
selnertreeshrubcare.com	Wisconsin			920.435.1165	Spain	De Pere
selnertreeshrubcare.com	Wisconsin			920.435.1165	United States	Wisconsin
seniorvillagerehab.com		Opelousas		Harry Guilbeau Road	Bolivia	LA
sixphysio.com	UK	London		Finchley Rd		
snugglebundl.co.uk		Stoke-on-Trent	Chattsworth Road	Innovation way	France	US
sobis.com		Mannheim	68309	+49 621 1228 5600	Germany	
sobis.com				Fraunhofer Str. 8		
sorrentoeast.org		Nokomis		US 41	United States	Florida
sorrentoeast.org		Sarasota		Tamiami Trail	United States	Florida
standard-alarms.com	north	Blyth	51 Bowes St	NE24 1EB	United Kingdom	Tyne & Wear
standardgroup.co.uk			01536 517 070	10 Garrard Way		
standardgroup.co.uk			01536 486 103	Telford Way		
sterlingridingacademy.com		STERLING RIDING ACADEMY		22444 County Road 102	United States	California
sussexanimalclinic.com		Sussex	N64 W24280	Main Street	United States	WI
tetonthaivillage.com	Teton National Park	Jackson Hole	307-733-0022LOCATIONMENULUNCHDRINKSPRESSINSTAGRAM	Granite Loop Road	United States	WY
tetonthaivillage.com	Grand Teton National Park	Jackson Hole	307-699-9783	GRANITE LOOP ROAD	United States	WY
thedevoregroup.com				Old Ridge Road		
theflounderfishcamp.com	upstates	Spartanburg	Barbado Lane	864.576.3165	United States	SC
theflounderfishcamp.com	upstate	Spartanburg	Barbado Lane	864.576.3165		
thegainsboroughbathspa.co.uk		London		BEAU STREET	ENGLAND	
thelionatfarnsfield.com	Derbyshire	THE LION AT FARNSFIELD	GB 845577977	Millennium Way	England and Wales	
themartialartscentre.com				Rayne Road	United Kingdom	Essex
thesummitclinic.co.uk	England	London		40 Highgate West Hill		
thundermountainharley.com	Northern Colorado	LOVELAND		Interstate 25 South	United States	CO
thundermountainharley.com	Rocky Mountains	Loveland		Crossroads Boulevard	United States	Colorado
tokyoto-luggage.com	EU	LONDON		OLD CITY ROAD	UNITED KINGDOM	
tokyoto-luggage.com		LUCAN CO. DUBLIN		LOWER MAIN STREET	IRELAND	
toplinetireandauto.com	Pasco County	Spring Hill		3371 Commercial Way	United States	FL
toplinetireandauto.com	Hernando County	Brooksville		13251 Cortez Blvd	United States	FL
toplinetireandauto.com		Brooksville		13251 Cortez Blvd	United States	FL
toplinetireandauto.com		Spring Hill		3371 Commercial Way	United States	FL
topmeadow.co.uk	Essex Countryside			M25		
topmeadow.co.uk	Essex			A127		
trelock.de		Munster	D-48149	Johann-Krane-Weg 37	Germany	
tri-starmechanical.com		Elk Grove Village		114 Joey Drive	Saudi Arabia	Il
tri-starmechanical.com		Elk Grove Village		114 Joey Drive	None	Chicago Land
tripeek.com	United States	Escondido	P.O. Box 952	Waterloo Road	United States	CA
twinpet.com		Porth		Hannah Street		
umbrawindowtinting.com		Schaumburg		811 W Higgins Rd # B	Saudi Arabia	IL
umbrawindowtinting.com		Glendale Heights		2021 Bloomingdale Rd	Saudi Arabia	IL
urbanacres.com	Iowa City Corridor	Urban		Cardinal Drive	United States	Iowa
urbanacres.com	Iowa City-Cedar Rapids Corridor	Marion		Southview Cir	United States	Iowa
urbanacres.com		Coralville		1317 Southview Cir	United States	Iowa
vizion4it.com		Milton Keynes	Unit 7	Bilton Road		
weareforeal.com		Trier	GbR	Seizstrasse 2-4	Germany	
wedgwoodvisitorcentre.com				M6		
westbrosinc.com			801.263.3763	801.263.3763	United States	UT
wickedislandbakery.com		NANTUCKET	BAYBERRY COURT	7 B	United States	MA
woodstock-motorparts.co.uk		Belfast		Ravenhill Business Park		
worldoffootball.com		edinburgh	0131 443 0404	MARINE DRIVE		
worldoffootball.com		Edinburgh	EH14	MARINE DRIVE		
worldoffootball.com		EDINBURGH	EH4	MARINE DRIVE		
worldoffootball.com		Edinburgh		10 Newmarket Road		
worldoffootball.com		Edinburgh		MARINE DRIVE		
worldoffootball.com				Marine Dr		
worldoffootball.com				0131 443 0404		
yanceyworks.com		Roseville	916-890-1000	Reserve Dr Ste 101	United States	CA
yorkshireholidaycottages.co.uk	Yorkshire	York		7 Colby Lane	UK	
yorkshireholidaycottages.co.uk	Yorkshire	York		Arguments Yard		
